NORAD_CAT_ID,OBJECT_NAME,OBJECT_TYPE,EPOCH,MEAN_MOTION,ECCENTRICITY,INCLINATION,RA_OF_ASC_NODE,ARG_OF_PERICENTER,MEAN_ANOMALY,BSTAR,MEAN_MOTION_DOT,MEAN_MOTION_DDOT,TLE_LINE0,TLE_LINE1,TLE_LINE2,SEMIMAJOR_AXIS,PERIOD,APOGEE,PERIGEE,DECAYED
54790.0,STARLINK-5445,PAYLOAD,2024-07-30 21:01:59,15.08852253,0.0001345,53.2148,143.2175,91.486,268.6287,0.00047968,7.357e-05,0.0,0 STARLINK-5445,1 54790U 22175AJ  24212.87638581  .00007357  00000-0  47968-3 0  9998,2 54790  53.2148 143.2175 0001345  91.4860 268.6287 15.08852253 89380,6917.843,95.437,540.638,538.777,0.0
54790.0,STARLINK-5445,PAYLOAD,2024-07-30 22:37:22,15.08855641,0.0001341,53.2148,142.9203,87.2,272.9146,0.00076454,0.00011906,0.0,0 STARLINK-5445,1 54790U 22175AJ  24212.94262524  .00011906  00000-0  76454-3 0  9993,2 54790  53.2148 142.9203 0001341  87.2000 272.9146 15.08855641 91551,6917.833,95.437,540.625,538.77,0.0
54790.0,STARLINK-5445,PAYLOAD,2024-07-31 06:34:18,15.08870944,0.0001363,53.215,141.4332,89.5821,270.5328,0.0010842,0.00017024,0.0,0 STARLINK-5445,1 54790U 22175AJ  24213.27381970  .00017024  00000-0  10842-2 0  9992,2 54790  53.2150 141.4332 0001363  89.5821 270.5328 15.08870944 91606,6917.786,95.436,540.594,538.708,0.0
54790.0,STARLINK-5445,PAYLOAD,2024-07-31 20:52:46,15.08835329,0.0001495,53.2153,138.7571,99.6482,260.4679,-0.0002437,-4.164e-05,0.0,0 STARLINK-5445,1 54790U 22175AJ  24213.86998360 -.00004164  00000-0 -24370-3 0  9999,2 54790  53.2153 138.7571 0001495  99.6482 260.4679 15.08835329 89538,6917.895,95.438,540.794,538.725,0.0
54790.0,STARLINK-5445,PAYLOAD,2024-07-31 22:28:09,15.08836404,0.0001493,53.2154,138.4597,101.5081,258.6079,-0.00011524,-2.121e-05,0.0,0 STARLINK-5445,1 54790U 22175AJ  24213.93622381 -.00002121  00000-0 -11524-3 0  9992,2 54790  53.2154 138.4597 0001493 101.5081 258.6079 15.08836404 91700,6917.891,95.438,540.789,538.724,0.0
54790.0,STARLINK-5445,PAYLOAD,2024-08-01 14:22:01,15.08845305,0.0001391,53.2158,135.4863,101.1195,258.9953,0.00084609,0.00013205,0.0,0 STARLINK-5445,1 54790U 22175AJ  24214.59862539  .00013205  00000-0  84609-3 0  9993,2 54790  53.2158 135.4863 0001391 101.1195 258.9953 15.08845305 91801,6917.864,95.437,540.691,538.767,0.0
54790.0,STARLINK-5445,PAYLOAD,2024-08-01 20:43:33,15.08842114,0.0001371,53.2159,134.2972,98.9178,261.1969,0.00017163,2.445e-05,0.0,0 STARLINK-5445,1 54790U 22175AJ  24214.86358643  .00002445  00000-0  17163-3 0  9994,2 54790  53.2159 134.2972 0001371  98.9178 261.1969 15.08842114 89683,6917.874,95.437,540.687,538.79,0.0
54790.0,STARLINK-5445,PAYLOAD,2024-08-01 22:18:57,15.0884237,0.0001356,53.2159,133.9997,102.7865,257.3278,0.00043464,6.637e-05,0.0,0 STARLINK-5445,1 54790U 22175AJ  24214.92982705  .00006637  00000-0  43464-3 0  9993,2 54790  53.2159 133.9997 0001356 102.7865 257.3278 15.08842370 91852,6917.873,95.437,540.676,538.8,0.0
54790.0,STARLINK-5445,PAYLOAD,2024-08-02 11:02:01,15.08866364,0.0001357,53.2162,131.6209,104.5438,255.5705,0.0010681,0.00016764,0.0,0 STARLINK-5445,1 54790U 22175AJ  24215.45974052  .00016764  00000-0  10681-2 0  9994,2 54790  53.2162 131.6209 0001357 104.5438 255.5705 15.08866364 89776,6917.8,95.436,540.604,538.726,0.0
54790.0,STARLINK-5445,PAYLOAD,2024-08-02 22:09:44,15.08827619,0.0001278,53.2163,129.5396,81.2511,278.8625,-0.00019648,-3.412e-05,0.0,0 STARLINK-5445,1 54790U 22175AJ  24215.92342945 -.00003412  00000-0 -19648-3 0  9997,2 54790  53.2163 129.5396 0001278  81.2511 278.8625 15.08827619 92004,6917.918,95.438,540.667,538.899,0.0
54790.0,STARLINK-5445,PAYLOAD,2024-08-03 04:31:16,15.08837678,0.0001341,53.2165,128.3503,87.6321,272.4825,0.00054203,8.348e-05,0.0,0 STARLINK-5445,1 54790U 22175AJ  24216.18839021  .00008348  00000-0  54203-3 0  9999,2 54790  53.2165 128.3503 0001341  87.6321 272.4825 15.08837678 89883,6917.887,95.438,540.68,538.825,0.0
54790.0,STARLINK-5445,PAYLOAD,2024-08-03 10:52:49,15.0884627,0.0001322,53.2164,127.1616,88.2891,271.8253,0.0011805,0.00018553,0.0,0 STARLINK-5445,1 54790U 22175AJ  24216.45335037  .00018553  00000-0  11805-2 0  9996,2 54790  53.2164 127.1616 0001322  88.2891 271.8253 15.08846270 92084,6917.861,95.437,540.641,538.812,0.0
54790.0,STARLINK-5445,PAYLOAD,2024-08-03 22:00:31,15.08835442,0.0001153,53.2162,125.0798,95.6309,264.4815,0.00095001,0.00014862,0.0,0 STARLINK-5445,1 54790U 22175AJ  24216.91703565  .00014862  00000-0  95001-3 0  9992,2 54790  53.2162 125.0798 0001153  95.6309 264.4815 15.08835442 92157,6917.894,95.438,540.557,538.962,0.0
54790.0,STARLINK-5445,PAYLOAD,2024-08-04 02:46:41,15.08848626,0.0001211,53.2161,124.1883,100.4104,259.7025,0.0019862,0.00031471,0.0,0 STARLINK-5445,1 54790U 22175AJ  24217.11575593  .00031471  00000-0  19862-2 0  9998,2 54790  53.2161 124.1883 0001211 100.4104 259.7025 15.08848626 90026,6917.854,95.437,540.557,538.881,0.0
54790.0,STARLINK-5445,PAYLOAD,2024-08-04 10:43:36,15.08875022,0.0001143,53.2164,122.7013,94.1225,265.9898,0.0023984,0.00038126,0.0,0 STARLINK-5445,1 54790U 22175AJ  24217.44695074  .00038126  00000-0  23984-2 0  9995,2 54790  53.2164 122.7013 0001143  94.1225 265.9898 15.08875022 92237,6917.773,95.435,540.429,538.848,0.0
54790.0,STARLINK-5445,PAYLOAD,2024-08-04 21:51:18,15.08882576,8.12e-05,53.2161,120.6194,105.1085,254.9997,0.0034951,0.00055842,0.0,0 STARLINK-5445,1 54790U 22175AJ  24217.91062984  .00055842  00000-0  34951-2 0  9995,2 54790  53.2161 120.6194 0000812 105.1085 254.9997 15.08882576 92308,6917.75,95.435,540.177,539.054,0.0
54790.0,STARLINK-5445,PAYLOAD,2024-08-05 01:02:04,15.08888068,0.0001255,53.2158,120.0249,92.1352,267.9784,0.0037811,0.00060484,0.0,0 STARLINK-5445,1 54790U 22175AJ  24218.04310916  .00060484  00000-0  37811-2 0  9997,2 54790  53.2158 120.0249 0001255  92.1352 267.9784 15.08888068 90165,6917.733,95.435,540.467,538.73,0.0
54790.0,STARLINK-5445,PAYLOAD,2024-08-05 10:34:22,15.08886629,0.0001367,53.2159,118.2417,91.5755,268.5393,0.0020797,0.00033008,0.0,0 STARLINK-5445,1 54790U 22175AJ  24218.44054271  .00033008  00000-0  20797-2 0  9997,2 54790  53.2159 118.2417 0001367  91.5755 268.5393 15.08886629 90227,6917.738,95.435,540.549,538.657,0.0
54790.0,STARLINK-5445,PAYLOAD,2024-08-05 23:17:29,15.08797964,0.0001158,53.2152,115.8611,74.2407,285.8712,0.00079148,0.00012316,0.0,0 STARLINK-5445,1 54790U 22175AJ  24218.97047986  .00012316  00000-0  79148-3 0  9994,2 54790  53.2152 115.8611 0001158  74.2407 285.8712 15.08797964 92467,6918.009,95.44,540.675,539.073,0.0
54790.0,STARLINK-5445,PAYLOAD,2024-08-06 00:52:52,15.0879795,0.0001224,53.2155,115.5643,65.3924,294.7195,0.0017837,0.00028181,0.0,0 STARLINK-5445,1 54790U 22175AJ  24219.03672353  .00028181  00000-0  17837-2 0  9997,2 54790  53.2155 115.5643 0001224  65.3924 294.7195 15.08797950 90312,6918.009,95.44,540.721,539.027,0.0
54790.0,STARLINK-5445,PAYLOAD,2024-08-06 21:32:54,15.08857141,0.0001311,53.2152,111.6985,68.3902,291.7229,0.0022746,0.00036115,0.0,0 STARLINK-5445,1 54790U 22175AJ  24219.89785140  .00036115  00000-0  22746-2 0  9991,2 54790  53.2152 111.6985 0001311  68.3902 291.7229 15.08857141 92609,6917.828,95.436,540.6,538.786,0.0
54790.0,STARLINK-5445,PAYLOAD,2024-08-07 02:19:03,15.08872026,0.0001314,53.215,110.8063,68.2488,291.8644,0.0023192,0.00036848,0.0,0 STARLINK-5445,1 54790U 22175AJ  24220.09656793  .00036848  00000-0  23192-2 0  9995,2 54790  53.2150 110.8063 0001314  68.2488 291.8644 15.08872026 90470,6917.783,95.436,540.556,538.739,0.0
54790.0,STARLINK-5445,PAYLOAD,2024-08-07 19:48:17,15.08882036,0.0001151,53.2153,107.5346,60.0875,300.0231,0.0022697,0.00036061,0.0,0 STARLINK-5445,1 54790U 22175AJ  24220.82520109  .00036061  00000-0  22697-2 0  9993,2 54790  53.2153 107.5346 0001151  60.0875 300.0231 15.08882036 90588,6917.752,95.435,540.413,538.821,0.0
54790.0,STARLINK-5445,PAYLOAD,2024-08-08 19:39:04,15.08876309,0.0003892,53.215,103.0749,2.0339,358.0669,0.002033,0.00032251,0.0,0 STARLINK-5445,1 54790U 22175AJ  24221.81880294  .00032251  00000-0  20330-2 0  9996,2 54790  53.2150 103.0749 0003892   2.0339 358.0669 15.08876309 90739,6917.769,95.435,542.327,536.942,0.0
54790.0,STARLINK-5445,PAYLOAD,2024-08-08 21:14:27,15.08840281,0.00011,53.2152,102.7767,108.4585,251.6527,0.0022349,0.0003546,0.0,0 STARLINK-5445,1 54790U 22175AJ  24221.88503570  .00035460  00000-0  22349-2 0  9999,2 54790  53.2152 102.7767 0001100 108.4585 251.6527 15.08840281 92903,6917.88,95.438,540.505,538.984,0.0
54790.0,STARLINK-5445,PAYLOAD,2024-08-08 22:49:49,15.08849514,0.0001719,53.2148,102.4765,148.8584,211.251,0.0010809,0.00016961,0.0,0 STARLINK-5445,1 54790U 22175AJ  24221.95127216  .00016961  00000-0  10809-2 0  9999,2 54790  53.2148 102.4765 0001719 148.8584 211.2510 15.08849514 90759,6917.851,95.437,540.905,538.527,0.0
54790.0,STARLINK-5445,PAYLOAD,2024-08-09 19:29:51,15.08840465,0.0001255,53.2151,98.6056,97.1294,262.984,5.4957e-05,5.87e-06,0.0,0 STARLINK-5445,1 54790U 22175AJ  24222.81239628  .00000587  00000-0  54957-4 0  9997,2 54790  53.2151  98.6056 0001255  97.1294 262.9840 15.08840465 90880,6917.879,95.438,540.612,538.876,0.0
54790.0,STARLINK-5445,PAYLOAD,2024-08-09 21:05:14,15.08842082,0.0001296,53.2158,98.3094,107.7956,252.3178,2.3243e-05,8.2e-07,0.0,0 STARLINK-5445,1 54790U 22175AJ  24222.87863550  .00000082  00000-0  23243-4 0  9994,2 54790  53.2158  98.3094 0001296 107.7956 252.3178 15.08842082 93050,6917.874,95.437,540.636,538.842,0.0
54790.0,STARLINK-5445,PAYLOAD,2024-08-09 22:40:37,15.08840908,0.000112,53.2156,98.0126,90.4106,269.7015,3.0634e-05,2e-06,0.0,0 STARLINK-5445,1 54790U 22175AJ  24222.94487719  .00000200  00000-0  30634-4 0  9995,2 54790  53.2156  98.0126 0001120  90.4106 269.7015 15.08840908 93060,6917.878,95.437,540.517,538.968,0.0
54790.0,STARLINK-5445,PAYLOAD,2024-08-10 19:20:38,15.08830248,0.0001221,53.2163,94.1493,103.6097,256.5031,-1.4665e-05,-5.21e-06,0.0,0 STARLINK-5445,1 54790U 22175AJ  24223.80600513 -.00000521  00000-0 -14665-4 0  9994,2 54790  53.2163  94.1493 0001221 103.6097 256.5031 15.08830248 91033,6917.91,95.438,540.62,538.931,0.0
